{"type":"FeatureCollection","features":[{"type":"Feature","geometry":{"type":"Point","coordinates":[105.706309,21.026151]},"properties":{"":"","marker-color":"rgba(62, 59, 147, 1)","commune_name":"Trường TH Lại Yên"}},{"type":"Feature","geometry":{"type":"Point","coordinates":[105.70901,21.026044]},"properties":{"commune_name":"Trường mầm non Lại Yên"}},{"type":"Feature","geometry":{"type":"Point","coordinates":[105.697247,21.019404]},"properties":{"commune_name":"Trường THPT Hoài Đức C"}},{"type":"Feature","geometry":{"type":"Point","coordinates":[105.696888,21.041491]},"properties":{"commune_name":"Trường mầm non Sơn Đồng"}},{"type":"Feature","geometry":{"type":"Point","coordinates":[105.696589,21.044215]},"properties":{"commune_name":"Trường TH Sơn Đồng"}},{"type":"Feature","geometry":{"type":"Point","coordinates":[105.703498,21.049018]},"properties":{"commune_name":"Trường THCS Sơn Đồng"}},{"type":"Feature","geometry":{"type":"Point","coordinates":[105.700653,21.037115]},"properties":{"commune_name":"Trường THCS Nguyễn Văn Huyên"}},{"type":"Feature","geometry":{"type":"Point","coordinates":[105.711667,21.01901]},"properties":{"commune_name":"Trường TH&THCS Edison An Khánh"}},{"type":"Feature","properties":{"commune_name":"Trường THCS Lại Yên"},"geometry":{"type":"Point","coordinates":[105.707249,21.026012]}},{"type":"Feature","properties":{"commune_name":"Trường mầm non Vân Canh B"},"geometry":{"type":"Point","coordinates":[105.73274,21.027826]}},{"type":"Feature","properties":{"commune_name":"Trường TH Vân Canh"},"geometry":{"type":"Point","coordinates":[105.733958,21.036044]}},{"type":"Feature","properties":{"commune_name":"Trường THCS Vân Canh"},"geometry":{"type":"Point","coordinates":[105.734069,21.035464]}},{"type":"Feature","properties":{"commune_name":"Trường THCS Tiền Yên"},"geometry":{"type":"Point","coordinates":[105.686598,21.02414]}},{"type":"Feature","properties":{"commune_name":"Trường mầm non Vân Canh"},"geometry":{"type":"Point","coordinates":[105.731148,21.035716]}},{"type":"Feature","properties":{"commune_name":"Trường THCS Song Phương"},"geometry":{"type":"Point","coordinates":[105.695179,21.018413]}},{"type":"Feature","properties":{"commune_name":"Trường TH Song Phương"},"geometry":{"type":"Point","coordinates":[105.695872,21.017907]}},{"type":"Feature","properties":{"commune_name":"Trường TH Tiền Yên"},"geometry":{"type":"Point","coordinates":[105.685952,21.025286]}},{"type":"Feature","properties":{"commune_name":"Trường mầm non Song Phương A"},"geometry":{"type":"Point","coordinates":[105.695467,21.019537]}},{"type":"Feature","properties":{"commune_name":"Trường mầm non Song Phương B"},"geometry":{"type":"Point","coordinates":[105.701668,21.011312]}},{"type":"Feature","properties":{"commune_name":"Trường mầm non Tiền Yên A"},"geometry":{"type":"Point","coordinates":[105.687531,21.028226]}},{"type":"Feature","properties":{"commune_name":"Trường mầm non Tiền Yên B"},"geometry":{"type":"Point","coordinates":[105.686268,21.021662]}}]}