{
    "type": "FeatureCollection",
    "features": [
        {
            "type": "Feature",
            "properties": {
                "commune_name": "UBND xã Sơn Đồng"
            },
            "geometry": {
                "type": "Point",
                "coordinates": [
                    105.686182,
                    21.02618
                ]
            }
        },
        {
            "type": "Feature",
            "properties": {
                "commune_name": "Đảng Ủy - HĐND - UBMTTQ xã Sơn Đồng"
            },
            "geometry": {
                "type": "Point",
                "coordinates": [
                    105.707935,
                    21.025799
                ]
            }
        },
        {
            "type": "Feature",
            "properties": {
                "commune_name": "Ban Chỉ huy Quân Sự xã Sơn Đồng"
            },
            "geometry": {
                "type": "Point",
                "coordinates": [
                    105.686314,
                    21.026517
                ]
            }
        },
        {
            "type": "Feature",
            "properties": {
                "commune_name": "Trụ sở chính Công an Xã Sơn Đồng"
            },
            "geometry": {
                "type": "Point",
                "coordinates": [
                    105.729593,
                    21.034765
                ]
            }
        },
        {
            "type": "Feature",
            "properties": {
                "commune_name": "TT Phục vụ Hành chính công"
            },
            "geometry": {
                "type": "Point",
                "coordinates": [
                    105.699329,
                    21.042948
                ]
            }
        }
    ]
}